NORAD_CAT_ID,OBJECT_NAME,OBJECT_TYPE,EPOCH,MEAN_MOTION,ECCENTRICITY,INCLINATION,RA_OF_ASC_NODE,ARG_OF_PERICENTER,MEAN_ANOMALY,BSTAR,MEAN_MOTION_DOT,MEAN_MOTION_DDOT,TLE_LINE0,TLE_LINE1,TLE_LINE2,SEMIMAJOR_AXIS,PERIOD,APOGEE,PERIGEE,DECAYED
49758.0,STARLINK-3194,PAYLOAD,2024-07-21 00:05:34,15.08851891,0.0001191,53.2154,297.7512,77.4942,282.6183,8.2799e-05,1.031e-05,0.0,0 STARLINK-3194,1 49758U 21115AL  24203.00387373  .00001031  00000-0  82799-4 0  9999,2 49758  53.2154 297.7512 0001191  77.4942 282.6183 15.08851891146707,6917.844,95.437,540.533,538.885,0.0
49758.0,STARLINK-3194,PAYLOAD,2024-07-21 11:13:17,15.08841675,0.0001473,53.2174,295.6705,100.9208,259.195,0.00011462,1.537e-05,0.0,0 STARLINK-3194,1 49758U 21115AL  24203.46756172  .00001537  00000-0  11462-3 0  9995,2 49758  53.2174 295.6705 0001473 100.9208 259.1950 15.08841675146777,6917.875,95.437,540.759,538.721,0.0
49758.0,STARLINK-3194,PAYLOAD,2024-07-22 09:28:41,15.08836632,0.0001493,53.2177,291.5089,95.9137,264.2025,5.0738e-05,5.2e-06,0.0,0 STARLINK-3194,1 49758U 21115AL  24204.39492629  .00000520  00000-0  50738-4 0  9993,2 49758  53.2177 291.5089 0001493  95.9137 264.2025 15.08836632146919,6917.891,95.438,540.789,538.723,0.0
49758.0,STARLINK-3194,PAYLOAD,2024-07-23 12:30:14,15.08843044,0.000164,53.2171,286.4551,104.6056,255.5118,0.0004867,7.467e-05,0.0,0 STARLINK-3194,1 49758U 21115AL  24205.52100512  .00007467  00000-0  48670-3 0  9994,2 49758  53.2171 286.4551 0001640 104.6056 255.5118 15.08843044147082,6917.871,95.437,540.871,538.602,0.0
49758.0,STARLINK-3194,PAYLOAD,2024-07-24 09:10:16,15.08833362,0.0001285,53.2153,282.5824,86.4252,273.6887,-2.9629e-06,-3.35e-06,0.0,0 STARLINK-3194,1 49758U 21115AL  24206.38213052 -.00000335  00000-0 -29629-5 0  9997,2 49758  53.2153 282.5824 0001285  86.4252 273.6887 15.08833362147213,6917.901,95.438,540.655,538.877,0.0
49758.0,STARLINK-3194,PAYLOAD,2024-07-25 04:14:53,15.08837643,0.0001425,53.2158,279.018,98.319,261.7963,6.451e-05,7.39e-06,0.0,0 STARLINK-3194,1 49758U 21115AL  24207.17700753  .00000739  00000-0  64510-4 0  9997,2 49758  53.2158 279.0180 0001425  98.3190 261.7963 15.08837643146222,6917.888,95.438,540.738,538.767,0.0
49758.0,STARLINK-3194,PAYLOAD,2024-07-25 09:01:02,15.08851595,0.0001355,53.2165,278.1285,104.0668,256.0474,-0.00013483,-2.434e-05,0.0,0 STARLINK-3194,1 49758U 21115AL  24207.37572275 -.00002434  00000-0 -13483-3 0  9993,2 49758  53.2165 278.1285 0001355 104.0668 256.0474 15.08851595147365,6917.845,95.437,540.647,538.773,0.0
49758.0,STARLINK-3194,PAYLOAD,2024-07-26 12:02:36,15.08831582,0.0001765,53.2164,273.0713,87.4778,272.6417,0.00044403,6.784e-05,0.0,0 STARLINK-3194,1 49758U 21115AL  24208.50181365  .00006784  00000-0  44403-3 0  9991,2 49758  53.2164 273.0713 0001765  87.4778 272.6417 15.08831582147539,6917.906,95.438,540.992,538.55,0.0
49758.0,STARLINK-3194,PAYLOAD,2024-07-26 13:37:59,15.08845072,0.0001847,53.2183,272.7665,106.9098,253.2097,0.00013421,1.849e-05,0.0,0 STARLINK-3194,1 49758U 21115AL  24208.56804494  .00001849  00000-0  13421-3 0  9995,2 49758  53.2183 272.7665 0001847 106.9098 253.2097 15.08845072146431,6917.865,95.437,541.008,538.452,0.0
49758.0,STARLINK-3194,PAYLOAD,2024-07-26 21:34:54,15.0885386,0.0001687,53.2178,271.2789,125.4277,234.6873,-8.1063e-05,-1.578e-05,0.0,0 STARLINK-3194,1 49758U 21115AL  24208.89924599 -.00001578  00000-0 -81063-4 0  9999,2 49758  53.2178 271.2789 0001687 125.4277 234.6873 15.08853860146487,6917.838,95.437,540.87,538.536,0.0
49758.0,STARLINK-3194,PAYLOAD,2024-07-27 11:53:22,15.08851867,0.0001526,53.2178,268.6044,112.5462,247.5692,-2.1846e-05,-6.36e-06,0.0,0 STARLINK-3194,1 49758U 21115AL  24209.49540185 -.00000636  00000-0 -21846-4 0  9998,2 49758  53.2178 268.6044 0001526 112.5462 247.5692 15.08851867146573,6917.844,95.437,540.765,538.653,0.0
49758.0,STARLINK-3194,PAYLOAD,2024-07-28 13:19:33,15.08841674,0.0001421,53.2154,263.8459,105.9349,254.18,-5.1864e-05,-1.113e-05,0.0,0 STARLINK-3194,1 49758U 21115AL  24210.55524754 -.00001113  00000-0 -51864-4 0  9995,2 49758  53.2154 263.8459 0001421 105.9349 254.1800 15.08841674147849,6917.875,95.437,540.723,538.757,0.0
49758.0,STARLINK-3194,PAYLOAD,2024-07-28 14:54:56,15.08845669,0.000148,53.2164,263.5529,93.3539,266.7623,-5.6417e-06,-3.78e-06,0.0,0 STARLINK-3194,1 49758U 21115AL  24210.62148453 -.00000378  00000-0 -56417-5 0  9993,2 49758  53.2164 263.5529 0001480  93.3539 266.7623 15.08845669146749,6917.863,95.437,540.752,538.704,0.0
49758.0,STARLINK-3194,PAYLOAD,2024-07-29 09:59:34,15.08833305,0.0001354,53.2163,259.9856,88.7052,271.4095,2.3289e-05,8.3e-07,0.0,0 STARLINK-3194,1 49758U 21115AL  24211.41637348  .00000083  00000-0  23289-4 0  9998,2 49758  53.2163 259.9856 0001354  88.7052 271.4095 15.08833305147974,6917.901,95.438,540.703,538.829,0.0
49758.0,STARLINK-3194,PAYLOAD,2024-07-30 09:50:21,15.08843189,0.0001449,53.2161,255.5256,85.7759,274.3398,8.3927e-05,1.048e-05,0.0,0 STARLINK-3194,1 49758U 21115AL  24212.40996853  .00001048  00000-0  83927-4 0  9994,2 49758  53.2161 255.5256 0001449  85.7759 274.3398 15.08843189148121,6917.871,95.437,540.738,538.733,0.0
49758.0,STARLINK-3194,PAYLOAD,2024-07-30 19:22:40,15.08839344,0.0001438,53.2158,253.7415,84.5018,275.6138,4.7876e-05,4.74e-06,0.0,0 STARLINK-3194,1 49758U 21115AL  24212.80741249  .00000474  00000-0  47876-4 0  9990,2 49758  53.2158 253.7415 0001438  84.5018 275.6138 15.08839344147074,6917.882,95.438,540.742,538.753,0.0
49758.0,STARLINK-3194,PAYLOAD,2024-07-31 09:41:09,15.08833839,0.0001524,53.2162,251.0657,84.1085,276.008,2.328e-05,8.2e-07,0.0,0 STARLINK-3194,1 49758U 21115AL  24213.40357967  .00000082  00000-0  23280-4 0  9995,2 49758  53.2162 251.0657 0001524  84.1085 276.0080 15.08833839147168,6917.899,95.438,540.819,538.71,0.0
49758.0,STARLINK-3194,PAYLOAD,2024-08-01 07:56:32,15.08841703,0.0001445,53.216,246.9067,92.9562,267.1595,7.4465e-05,8.97e-06,0.0,0 STARLINK-3194,1 49758U 21115AL  24214.33093466  .00000897  00000-0  74465-4 0  9994,2 49758  53.2160 246.9067 0001445  92.9562 267.1595 15.08841703148413,6917.875,95.437,540.74,538.741,0.0
49758.0,STARLINK-3194,PAYLOAD,2024-08-02 10:58:06,15.08839341,0.000142,53.2159,241.8443,87.733,272.3825,8.119e-05,1.004e-05,0.0,0 STARLINK-3194,1 49758U 21115AL  24215.45701719  .00001004  00000-0  81190-4 0  9999,2 49758  53.2159 241.8443 0001420  87.7330 272.3825 15.08839341148588,6917.882,95.438,540.73,538.765,0.0
49758.0,STARLINK-3194,PAYLOAD,2024-08-03 09:13:29,15.08843594,0.0001429,53.2156,237.6827,88.7285,271.3871,6.0923e-05,6.82e-06,0.0,0 STARLINK-3194,1 49758U 21115AL  24216.38437493  .00000682  00000-0  60923-4 0  9999,2 49758  53.2156 237.6827 0001429  88.7285 271.3871 15.08843594147611,6917.869,95.437,540.723,538.746,0.0
49758.0,STARLINK-3194,PAYLOAD,2024-08-03 18:45:49,15.08840258,0.0001454,53.2163,235.8966,85.0329,275.0829,4.1724e-05,3.76e-06,0.0,0 STARLINK-3194,1 49758U 21115AL  24216.78181732  .00000376  00000-0  41724-4 0  9993,2 49758  53.2163 235.8966 0001454  85.0329 275.0829 15.08840258148787,6917.88,95.438,540.75,538.739,0.0
49758.0,STARLINK-3194,PAYLOAD,2024-08-04 07:28:54,15.08839194,0.0001385,53.2153,233.5185,87.799,272.3161,3.8687e-05,3.28e-06,0.0,0 STARLINK-3194,1 49758U 21115AL  24217.31173790  .00000328  00000-0  38687-4 0  9999,2 49758  53.2153 233.5185 0001385  87.7990 272.3161 15.08839194147752,6917.883,95.438,540.706,538.79,0.0
49758.0,STARLINK-3194,PAYLOAD,2024-08-04 18:36:35,15.08843034,0.0001479,53.2161,231.4372,84.4328,275.6832,5.7997e-05,6.35e-06,0.0,0 STARLINK-3194,1 49758U 21115AL  24217.77541502  .00000635  00000-0  57997-4 0  9995,2 49758  53.2161 231.4372 0001479  84.4328 275.6832 15.08843034147826,6917.871,95.437,540.759,538.713,0.0
49758.0,STARLINK-3194,PAYLOAD,2024-08-05 05:44:17,15.08847344,0.0001412,53.2153,229.3556,86.616,273.4993,8.5865e-05,1.079e-05,0.0,0 STARLINK-3194,1 49758U 21115AL  24218.23909080  .00001079  00000-0  85865-4 0  9994,2 49758  53.2153 229.3556 0001412  86.6160 273.4993 15.08847344149006,6917.858,95.437,540.7,538.746,0.0
49758.0,STARLINK-3194,PAYLOAD,2024-08-05 07:19:40,15.08847946,0.000142,53.2152,229.0581,87.0451,273.0704,9.114e-05,1.163e-05,0.0,0 STARLINK-3194,1 49758U 21115AL  24218.30532955  .00001163  00000-0  91140-4 0  9992,2 49758  53.2152 229.0581 0001420  87.0451 273.0704 15.08847946147908,6917.856,95.437,540.703,538.739,0.0
49758.0,STARLINK-3194,PAYLOAD,2024-08-06 05:35:05,15.08831853,0.0001448,53.2154,224.8941,89.4006,270.7153,-1.2074e-05,-4.8e-06,0.0,0 STARLINK-3194,1 49758U 21115AL  24219.23270321 -.00000480  00000-0 -12074-4 0  9993,2 49758  53.2154 224.8941 0001448  89.4006 270.7153 15.08831853149156,6917.905,95.438,540.772,538.769,0.0
49758.0,STARLINK-3194,PAYLOAD,2024-08-06 10:21:15,15.08832096,0.0001427,53.2158,224.0016,91.5234,268.5922,-3.5371e-05,-8.51e-06,0.0,0 STARLINK-3194,1 49758U 21115AL  24219.43142422 -.00000851  00000-0 -35371-4 0  9992,2 49758  53.2158 224.0016 0001427  91.5234 268.5922 15.08832096148078,6917.905,95.438,540.757,538.782,0.0
49758.0,STARLINK-3194,PAYLOAD,2024-08-06 16:42:47,15.08835442,0.0001413,53.2158,222.8141,89.3631,270.7523,4.4776e-08,-2.87e-06,0.0,0 STARLINK-3194,1 49758U 21115AL  24219.69638183 -.00000287  00000-0  44776-7 0  9998,2 49758  53.2158 222.8141 0001413  89.3631 270.7523 15.08835442148119,6917.894,95.438,540.737,538.782,0.0
49758.0,STARLINK-3194,PAYLOAD,2024-08-07 00:39:42,15.0884041,0.0001376,53.2157,221.3267,90.0795,270.0355,4.603e-06,-2.15e-06,0.0,0 STARLINK-3194,1 49758U 21115AL  24220.02757869 -.00000215  00000-0  46030-5 0  9994,2 49758  53.2157 221.3267 0001376  90.0795 270.0355 15.08840410149274,6917.879,95.438,540.696,538.792,0.0
49758.0,STARLINK-3194,PAYLOAD,2024-08-07 08:36:38,15.08846657,0.0001412,53.2158,219.8402,90.0848,270.0306,4.5962e-05,4.44e-06,0.0,0 STARLINK-3194,1 49758U 21115AL  24220.35877376  .00000444  00000-0  45962-4 0  9991,2 49758  53.2158 219.8402 0001412  90.0848 270.0306 15.08846657148216,6917.86,95.437,540.702,538.748,0.0
